KUIPER-00232            
1 67148U 25301R   26014.41645124  .00029068  00000+0  79288-3 0  9998
2 67148  51.8742 327.2575 0002667  95.2674 264.8617 15.37209879  5392
KUIPER-00241            
1 67149U 25301S   26014.09951208  .00023857  00000+0  66004-3 0  9998
2 67149  51.8748 328.8804 0002848 145.8023 214.3147 15.36878692  5675
KUIPER-00245            
1 67150U 25301T   26014.58335648 -.00827866  00000+0 -38987-1 0  9999
2 67150  51.8793 327.1474 0007902 188.7114   2.9631 15.21751558  4904
KUIPER-00246            
1 67151U 25301U   26014.29989559  .00018070  00000+0  50720-3 0  9992
2 67151  51.8739 327.9740 0003851 168.0113 192.0965 15.36611501  5392
KUIPER-00247            
1 67152U 25301V   26014.14193273  .00018207  00000+0  54487-3 0  9993
2 67152  51.8666 329.1402 0011250 215.3647 144.6594 15.34542009  5341
KUIPER-00248            
1 67153U 25301W   26014.45357977  .00020662  00000+0  60098-3 0  9994
2 67153  51.8694 327.4923 0007878 201.5988 158.4667 15.35381328  5562
KUIPER-00249            
1 67154U 25301X   26014.12405871  .00019694  00000+0  56682-3 0  9993
2 67154  51.8684 329.0303 0008292 197.8548 162.2148 15.35741814  5345
KUIPER-00250            
1 67155U 25301Y   26014.50478931  .00012922  00000+0  37023-3 0  9998
2 67155  51.8723 327.0936 0006597 185.8904 174.2006 15.36239312  5431
